0 SL-16 R/B
1 19650U 88102B   13282.51623166 -.00000241  00000-0 -98457-4 0  1152
2 19650 071.0008 326.5112 0011999 065.8679 028.1301 14.15629006285407
0 SL-16 R/B
1 19650U 88102B   13283.72636595 -.00000241  00000-0 -98644-4 0  1165
2 19650 071.0004 323.9673 0012067 064.0150 075.3046 14.15628757285578
0 SL-16 R/B
1 19650U 88102B   13286.17895028 -.00000245  00000-0 -10079-3 0  1186
2 19650 070.9997 318.8116 0012182 059.9978 334.6006 14.15627841285920
0 SL-16 R/B
1 19650U 88102B   13287.46362669 -.00000221  00000-0 -88357-4 0  1199
2 19650 070.9994 316.1109 0012257 057.8570 041.8316 14.15627107286105
0 SL-16 R/B
1 19650U 88102B   13288.53575898 -.00000168  00000-0 -61306-4 0  1205
2 19650 070.9992 313.8568 0012319 056.0814 105.8389 14.15626685286254
0 SL-16 R/B
1 19650U 88102B   13289.72886578 -.00000129  00000-0 -41497-4 0  1214
2 19650 070.9991 311.3483 0012382 054.2913 066.1931 14.15626073286424
0 SL-16 R/B
1 19650U 88102B   13291.20452265 -.00000066  00000-0 -95618-5 0  1228
2 19650 070.9991 308.2457 0012467 051.9822 026.5811 14.15624934286631
0 SL-16 R/B
1 19650U 88102B   13292.49278845  .00000023  00000-0  36201-4 0  1234
2 19650 070.9992 305.5371 0012545 049.8765 112.0555 14.15623904286818
0 SL-16 R/B
1 19650U 88102B   13293.54153816  .00000126  00000-0  88533-4 0  1241
2 19650 070.9993 303.3322 0012630 048.0514 056.9765 14.15623439286967
0 SL-16 R/B
1 19650U 88102B   13294.67500326  .00000224  00000-0  13858-3 0  1255
2 19650 070.9994 300.9491 0012673 046.2870 073.4375 14.15623157287127
0 SL-16 R/B
1 19650U 88102B   13296.21573044  .00000320  00000-0  18756-3 0  1264
2 19650 070.9995 297.7098 0012773 043.6759 005.6323 14.15623239287347
